{"type": "FeatureCollection", "features": [{"type": "Feature", "properties": {"norad_id": 32275, "name": "COSMOS 2433 (720)", "group": "glo-ops", "lat": 35.476836563158784, "lon": -19.46991576143431, "alt_km": 19135.983813001687, "timestamp": "2025-12-26T06:43:29.772485+00:00", "meta": {"OBJECT_NAME": "COSMOS 2433 (720)", "OBJECT_ID": "2007-052A", "EPOCH": "2025-12-24T08:26:16.805760", "MEAN_MOTION": 2.13104186, "ECCENTRICITY": 0.00051043, "INCLINATION": 65.677, "RA_OF_ASC_NODE": 321.8159, "ARG_OF_PERICENTER": 257.0223, "MEAN_ANOMALY": 102.9214, "EPHEMERIS_TYPE": 0, "CLASSIFICATION_TYPE": "U", "NORAD_CAT_ID": 32275, "ELEMENT_SET_NO": 999, "REV_AT_EPOCH": 14133, "BSTAR": 0, "MEAN_MOTION_DOT": -3.3e-07, "MEAN_MOTION_DDOT": 0}, "tle": {"line1": "1 32275U 07052A   25358.35158340 -.00000033  00000+0  00000+0 0  9990", "line2": "2 32275  65.6770 321.8159 0005104 257.0223 102.9214  2.13104186141339"}}, "geometry": {"type": "Point", "coordinates": [-19.46991576143431, 35.476836563158784]}}, {"type": "Feature", "properties": {"norad_id": 32276, "name": "COSMOS 2432 (719)", "group": "glo-ops", "lat": -14.540032593931592, "lon": -44.86562934232166, "alt_km": 19106.822503561194, "timestamp": "2025-12-26T06:43:29.772509+00:00", "meta": {"OBJECT_NAME": "COSMOS 2432 (719)", "OBJECT_ID": "2007-052B", "EPOCH": "2025-12-24T04:32:38.772960", "MEAN_MOTION": 2.13103387, "ECCENTRICITY": 0.00113791, "INCLINATION": 65.6931, "RA_OF_ASC_NODE": 321.9458, "ARG_OF_PERICENTER": 314.7871, "MEAN_ANOMALY": 225.1187, "EPHEMERIS_TYPE": 0, "CLASSIFICATION_TYPE": "U", "NORAD_CAT_ID": 32276, "ELEMENT_SET_NO": 999, "REV_AT_EPOCH": 14135, "BSTAR": 0, "MEAN_MOTION_DOT": -3.3e-07, "MEAN_MOTION_DDOT": 0}, "tle": {"line1": "1 32276U 07052B   25358.18933765 -.00000033  00000+0  00000+0 0  9994", "line2": "2 32276  65.6931 321.9458 0011379 314.7871 225.1187  2.13103387141354"}}, "geometry": {"type": "Point", "coordinates": [-44.86562934232166, -14.540032593931592]}}, {"type": "Feature", "properties": {"norad_id": 32393, "name": "COSMOS 2434 (721)", "group": "glo-ops", "lat": -57.83490890848659, "lon": 147.796626988828, "alt_km": 19145.906532304816, "timestamp": "2025-12-26T06:43:29.772524+00:00", "meta": {"OBJECT_NAME": "COSMOS 2434 (721)", "OBJECT_ID": "2007-065A", "EPOCH": "2025-12-25T04:50:38.690880", "MEAN_MOTION": 2.13101426, "ECCENTRICITY": 0.00048155, "INCLINATION": 64.316, "RA_OF_ASC_NODE": 197.7825, "ARG_OF_PERICENTER": 72.3335, "MEAN_ANOMALY": 110.4789, "EPHEMERIS_TYPE": 0, "CLASSIFICATION_TYPE": "U", "NORAD_CAT_ID": 32393, "ELEMENT_SET_NO": 999, "REV_AT_EPOCH": 14006, "BSTAR": 0, "MEAN_MOTION_DOT": 1.04e-06, "MEAN_MOTION_DDOT": 0}, "tle": {"line1": "1 32393U 07065A   25359.20183670  .00000104  00000+0  00000+0 0  9992", "line2": "2 32393  64.3160 197.7825 0004815  72.3335 110.4789  2.13101426140063"}}, "geometry": {"type": "Point", "coordinates": [147.796626988828, -57.83490890848659]}}, {"type": "Feature", "properties": {"norad_id": 32395, "name": "COSMOS 2436 (723)", "group": "glo-ops", "lat": 53.57205555967195, "lon": -121.48207047182622, "alt_km": 19096.52401091397, "timestamp": "2025-12-26T06:43:29.772537+00:00", "meta": {"OBJECT_NAME": "COSMOS 2436 (723)", "OBJECT_ID": "2007-065C", "EPOCH": "2025-12-25T06:17:47.253408", "MEAN_MOTION": 2.1310019, "ECCENTRICITY": 0.0017826, "INCLINATION": 64.3246, "RA_OF_ASC_NODE": 197.8509, "ARG_OF_PERICENTER": 10.3034, "MEAN_ANOMALY": 351.9575, "EPHEMERIS_TYPE": 0, "CLASSIFICATION_TYPE": "U", "NORAD_CAT_ID": 32395, "ELEMENT_SET_NO": 999, "REV_AT_EPOCH": 14002, "BSTAR": 0, "MEAN_MOTION_DOT": 1.04e-06, "MEAN_MOTION_DDOT": 0}, "tle": {"line1": "1 32395U 07065C   25359.26235247  .00000104  00000+0  00000+0 0  9998", "line2": "2 32395  64.3246 197.8509 0017826  10.3034 351.9575  2.13100190140022"}}, "geometry": {"type": "Point", "coordinates": [-121.48207047182622, 53.57205555967195]}}, {"type": "Feature", "properties": {"norad_id": 36111, "name": "COSMOS 2456 (730)", "group": "glo-ops", "lat": 64.78345933601537, "lon": 160.43451925296276, "alt_km": 19131.059018108637, "timestamp": "2025-12-26T06:43:29.772549+00:00", "meta": {"OBJECT_NAME": "COSMOS 2456 (730)", "OBJECT_ID": "2009-070A", "EPOCH": "2025-12-24T09:16:29.146080", "MEAN_MOTION": 2.13103739, "ECCENTRICITY": 0.00036447, "INCLINATION": 64.9059, "RA_OF_ASC_NODE": 76.94, "ARG_OF_PERICENTER": 294.9884, "MEAN_ANOMALY": 139.4332, "EPHEMERIS_TYPE": 0, "CLASSIFICATION_TYPE": "U", "NORAD_CAT_ID": 36111, "ELEMENT_SET_NO": 999, "REV_AT_EPOCH": 12470, "BSTAR": 0, "MEAN_MOTION_DOT": -1e-08, "MEAN_MOTION_DDOT": 0}, "tle": {"line1": "1 36111U 09070A   25358.38644845 -.00000001  00000+0  00000+0 0  9993", "line2": "2 36111  64.9059  76.9400 0003644 294.9884 139.4332  2.13103739124702"}}, "geometry": {"type": "Point", "coordinates": [160.43451925296276, 64.78345933601537]}}, {"type": "Feature", "properties": {"norad_id": 36112, "name": "COSMOS 2457 (733)", "group": "glo-ops", "lat": -32.438922043264355, "lon": -85.95193382411843, "alt_km": 19127.38757285734, "timestamp": "2025-12-26T06:43:29.772561+00:00", "meta": {"OBJECT_NAME": "COSMOS 2457 (733)", "OBJECT_ID": "2009-070B", "EPOCH": "2025-12-25T12:53:15.895392", "MEAN_MOTION": 2.13101109, "ECCENTRICITY": 0.0004451, "INCLINATION": 64.8923, "RA_OF_ASC_NODE": 76.7479, "ARG_OF_PERICENTER": 163.6164, "MEAN_ANOMALY": 202.4906, "EPHEMERIS_TYPE": 0, "CLASSIFICATION_TYPE": "U", "NORAD_CAT_ID": 36112, "ELEMENT_SET_NO": 999, "REV_AT_EPOCH": 12473, "BSTAR": 0, "MEAN_MOTION_DOT": -5e-08, "MEAN_MOTION_DDOT": 0}, "tle": {"line1": "1 36112U 09070B   25359.53698953 -.00000005  00000+0  00000+0 0  9995", "line2": "2 36112  64.8923  76.7479 0004451 163.6164 202.4906  2.13101109124736"}}, "geometry": {"type": "Point", "coordinates": [-85.95193382411843, -32.438922043264355]}}, {"type": "Feature", "properties": {"norad_id": 36402, "name": "COSMOS 2460 (732)", "group": "glo-ops", "lat": -32.334681014368286, "lon": 157.05090012165417, "alt_km": 19131.52804551918, "timestamp": "2025-12-26T06:43:29.772573+00:00", "meta": {"OBJECT_NAME": "COSMOS 2460 (732)", "OBJECT_ID": "2010-007C", "EPOCH": "2025-12-25T05:13:15.714336", "MEAN_MOTION": 2.13106358, "ECCENTRICITY": 0.00024876, "INCLINATION": 65.5229, "RA_OF_ASC_NODE": 320.3522, "ARG_OF_PERICENTER": 284.3328, "MEAN_ANOMALY": 196.3839, "EPHEMERIS_TYPE": 0, "CLASSIFICATION_TYPE": "U", "NORAD_CAT_ID": 36402, "ELEMENT_SET_NO": 999, "REV_AT_EPOCH": 12302, "BSTAR": 0, "MEAN_MOTION_DOT": -3.2e-07, "MEAN_MOTION_DDOT": 0}, "tle": {"line1": "1 36402U 10007C   25359.21754299 -.00000032  00000+0  00000+0 0  9990", "line2": "2 36402  65.5229 320.3522 0002487 284.3328 196.3839  2.13106358123020"}}, "geometry": {"type": "Point", "coordinates": [157.05090012165417, -32.334681014368286]}}, {"type": "Feature", "properties": {"norad_id": 37867, "name": "COSMOS 2476 (744)", "group": "glo-ops", "lat": -3.817096387143098, "lon": 76.9573757626123, "alt_km": 19162.767930421716, "timestamp": "2025-12-26T06:43:29.772585+00:00", "meta": {"OBJECT_NAME": "COSMOS 2476 (744)", "OBJECT_ID": "2011-064A", "EPOCH": "2025-12-24T09:57:47.072160", "MEAN_MOTION": 2.13103925, "ECCENTRICITY": 0.00245084, "INCLINATION": 65.1679, "RA_OF_ASC_NODE": 78.7766, "ARG_OF_PERICENTER": 235.0068, "MEAN_ANOMALY": 129.7601, "EPHEMERIS_TYPE": 0, "CLASSIFICATION_TYPE": "U", "NORAD_CAT_ID": 37867, "ELEMENT_SET_NO": 999, "REV_AT_EPOCH": 11004, "BSTAR": 0, "MEAN_MOTION_DOT": 1e-08, "MEAN_MOTION_DDOT": 0}, "tle": {"line1": "1 37867U 11064A   25358.41512815  .00000001  00000+0  00000+0 0  9992", "line2": "2 37867  65.1679  78.7766 0024508 235.0068 129.7601  2.13103925110049"}}, "geometry": {"type": "Point", "coordinates": [76.9573757626123, -3.817096387143098]}}, {"type": "Feature", "properties": {"norad_id": 37868, "name": "COSMOS 2477 (745)", "group": "glo-ops", "lat": 3.3715270442516174, "lon": -102.75758698501603, "alt_km": 19101.62431684401, "timestamp": "2025-12-26T06:43:29.772603+00:00", "meta": {"OBJECT_NAME": "COSMOS 2477 (745)", "OBJECT_ID": "2011-064B", "EPOCH": "2025-12-24T15:22:57.950400", "MEAN_MOTION": 2.13103036, "ECCENTRICITY": 0.00215718, "INCLINATION": 65.1748, "RA_OF_ASC_NODE": 78.8466, "ARG_OF_PERICENTER": 235.4688, "MEAN_ANOMALY": 123.4303, "EPHEMERIS_TYPE": 0, "CLASSIFICATION_TYPE": "U", "NORAD_CAT_ID": 37868, "ELEMENT_SET_NO": 999, "REV_AT_EPOCH": 11003, "BSTAR": 0, "MEAN_MOTION_DOT": 1e-08, "MEAN_MOTION_DDOT": 0}, "tle": {"line1": "1 37868U 11064B   25358.64094850  .00000001  00000+0  00000+0 0  9992", "line2": "2 37868  65.1748  78.8466 0021571 235.4688 123.4303  2.13103036110036"}}, "geometry": {"type": "Point", "coordinates": [-102.75758698501603, 3.3715270442516174]}}, {"type": "Feature", "properties": {"norad_id": 37869, "name": "COSMOS 2475 (743)", "group": "glo-ops", "lat": 42.346945247717585, "lon": -126.08403871924484, "alt_km": 19156.034264013935, "timestamp": "2025-12-26T06:43:29.772626+00:00", "meta": {"OBJECT_NAME": "COSMOS 2475 (743)", "OBJECT_ID": "2011-064C", "EPOCH": "2025-12-25T05:57:40.330080", "MEAN_MOTION": 2.1310165, "ECCENTRICITY": 0.00267734, "INCLINATION": 65.1818, "RA_OF_ASC_NODE": 78.8463, "ARG_OF_PERICENTER": 249.2296, "MEAN_ANOMALY": 171.5586, "EPHEMERIS_TYPE": 0, "CLASSIFICATION_TYPE": "U", "NORAD_CAT_ID": 37869, "ELEMENT_SET_NO": 999, "REV_AT_EPOCH": 11006, "BSTAR": 0, "MEAN_MOTION_DOT": -1e-08, "MEAN_MOTION_DDOT": 0}, "tle": {"line1": "1 37869U 11064C   25359.24838345 -.00000001  00000+0  00000+0 0  9996", "line2": "2 37869  65.1818  78.8463 0026773 249.2296 171.5586  2.13101650110069"}}, "geometry": {"type": "Point", "coordinates": [-126.08403871924484, 42.346945247717585]}}]}